BEESAT-4                
1 41619U 16040W   22334.57988836  .00017228  00000+0  48163-3 0  9994
2 41619  97.1948  21.1125 0006567 232.6074 127.4573 15.36723199346188
CAS-2T & KS-1Q          
1 41847U 16066G   22334.14094538  .00000637  00000+0  10370-3 0  9990
2 41847  98.5319  38.4948 0363663  74.1428 289.9526 14.38926340318171
NAYIF-1 (EO-88)         
1 42017U 17008BX  22334.14477137  .00023127  00000+0  55374-3 0  9999
2 42017  97.2484  38.3250 0004343  28.8740 331.2747 15.41435197322536
ZHUHAI-1 02 (CAS-4B)    
1 42759U 17034B   22334.45862050  .00002738  00000+0  16324-3 0  9994
2 42759  43.0158 136.8305 0011362 262.2515 143.4160 15.13343540301497
ZHUHAI-1 01 (CAS-4A)    
1 42761U 17034D   22334.48540696  .00002913  00000+0  17247-3 0  9999
2 42761  43.0160 135.3485 0011527 265.9551 142.7556 15.13433561301505
MAX VALIER SAT          
1 42778U 17036P   22334.36424900  .00009236  00000+0  31816-3 0  9998
2 42778  97.1860   9.8856 0011894  94.6829 265.5771 15.30170116302247
RADFXSAT (FOX-1B)       
1 43017U 17073E   22334.19758806  .00004800  00000+0  35526-3 0  9996
2 43017  97.6531 221.5395 0244572   4.8633 355.4873 14.82721906271660
FOX-1D (AO-92)          
1 43137U 18004AC  22334.17354329  .00012208  00000+0  38183-3 0  9997
2 43137  97.3536  48.0735 0008258 127.4636 232.7358 15.33250869271701
DIWATA-2B               
1 43678U 18084H   22334.60247771  .00000809  00000+0  84521-4 0  9997
2 43678  97.9935 110.0934 0011077  96.8631 263.3878 14.92510935222630
ES'HAIL 2               
1 43700U 18090A   22334.31133763  .00000145  00000+0  00000+0 0  9991
2 43700   0.0141 295.5537 0001132 335.7816 295.7220  1.00271489 14697
FOX-1CLIFF (AO-95)      
1 43770U 18099N   22334.44439417  .00002417  00000+0  21262-3 0  9997
2 43770  97.6013  36.3953 0015038  81.0094 279.2829 14.97346383217846
ITASAT 1                
1 43786U 18099AE  22334.42732543  .00001473  00000+0  13142-3 0  9997
2 43786  97.6048  37.3787 0015756  72.7020 287.5925 14.97373301217883
JY1SAT (JO-97)          
1 43803U 18099AX  22334.18012811  .00002716  00000+0  23391-3 0  9997
2 43803  97.5999  36.9583 0015336  73.9231 286.3679 14.98073165217875
UWE-4                   
1 43880U 18111E   22334.19084471  .00002678  00000+0  22427-3 0  9995
2 43880  97.6560 237.5879 0011485 121.4699 238.7649 14.99231863214529
NEXUS (FO-99)           
1 43937U 19003F   22334.06216960  .00015910  00000+0  46142-3 0  9998
2 43937  97.1143   1.2836 0016230 281.7456  78.1967 15.35476185215346
PSAT2 (NO-104)          
1 44354U 19036R   22334.53509951  .00110840 -31226-5  55577-3 0  9996
2 44354  28.5193  88.5734 0147668  73.5592 288.1188 15.65920508190487
JAISAT-1                
1 44419U 19038F   22334.41391983  .00009458  00000+0  43434-3 0  9991
2 44419  97.6566 306.3851 0015667 280.0143  79.9324 15.20515109188248
DUCHIFAT-3              
1 44854U 19089C   22334.03741966  .00003473  00000+0  26290-3 0  9990
2 44854  36.9646 197.8438 0005737 127.5002  20.4311 15.02430446162830
CAS-6 (TIANQIN 1)       
1 44881U 19093C   22334.48917191  .00000516  00000+0  71678-4 0  9995
2 44881  97.8812  51.2247 0015223  11.1866 348.9686 14.81947621159360
RS-44 & BREEZE-KM R/B   
1 44909U 19096E   22334.40571929  .00000039  00000+0  11767-3 0  9998
2 44909  82.5189 120.0368 0216455 291.7945  66.0251 12.79716787136736
ORBITAL FACTORY 2 (OF-2)
1 45113U 19071C   22334.36288807  .00049792  00000+0  65869-3 0  9995
2 45113  51.6353 317.0734 0011665  64.4598 295.7599 15.57742120159116
HUSKYSAT-1 (HO-107)     
1 45119U 19071J   22334.34603221  .00039013  00000+0  57503-3 0  9991
2 45119  51.6350 319.1750 0011342  60.3091 299.9028 15.54936223159079
BY70-2                  
1 45857U 20042B   22334.51450077  .00006834  00000+0  86159-3 0  9992
2 45857  97.9450  49.9214 0008820 296.9759  63.0565 14.82262677130036
SALSAT                  
1 46495U 20068K   22334.26131403  .00003091  00000+0  21941-3 0  9990
2 46495  97.7473 275.8277 0017749  76.3326 283.9875 15.05371278119125
BY70-3                  
1 46839U 20079N   22334.60191487  .00040292  00000+0  66554-3 0  9993
2 46839  97.1807  45.2968 0005197  95.7696  40.1751 15.52129950115916
RADFXSAT-2 (AO-109)     
1 47311U 21002C   22334.36390193  .00010226  00000+0  36679-3 0  9993
2 47311  60.6837  96.3695 0038239  76.5005 284.0341 15.28604343103792
UVSQ-SAT                
1 47438U 21006AB  22334.14729012  .00005971  00000+0  29705-3 0  9992
2 47438  97.4162  29.7766 0012674  63.4765 296.7767 15.17920006102395
DIY-1 (ARDUIQUBE)       
1 47963U 21022AH  22334.52851020  .00022383  00000+0  10308-2 0  9994
2 47963  97.5167 234.4558 0012021 287.0011  72.9906 15.20247134 92117
XW-3 (CAS-9)            
1 50466U 21131B   22334.47901537  .00000165  00000+0  68330-4 0  9994
2 50466  98.5695  51.5573 0004631  28.4333 331.7106 14.38583578 48788
TEVEL-3                 
1 50988U 22002E   22334.41570778  .00008039  00000+0  40930-3 0  9997
2 50988  97.4629  38.7075 0008736 199.8777 216.4100 15.17035804 48551
TEVEL-8                 
1 50989U 22002F   22334.50512389  .00008227  00000+0  41943-3 0  9996
2 50989  97.4643  38.8330 0008570 198.8546 285.6853 15.16982791 48561
TEVEL-5                 
1 50998U 22002Q   22334.44753795  .00008506  00000+0  42601-3 0  9999
2 50998  97.4626  38.9398 0010178 195.9301 220.8371 15.17583266 48573
TEVEL-6                 
1 50999U 22002R   22334.44671619  .00008466  00000+0  42394-3 0  9998
2 50999  97.4619  38.9355 0010194 195.7548 221.3889 15.17589137 48571
TEVEL-1                 
1 51013U 22002AF  22334.63708105  .00008190  00000+0  41721-3 0  9995
2 51013  97.4626  38.8938 0008620 198.8916 317.5733 15.17010957 48583
TEVEL-7                 
1 51062U 22002CG  22334.29843275  .00008215  00000+0  41889-3 0  9992
2 51062  97.4639  38.6103 0008719 198.9867 226.3353 15.16977510 48534
TEVEL-4                 
1 51063U 22002CH  22334.43070809  .00008239  00000+0  42026-3 0  9994
2 51063  97.4639  38.7339 0008717 198.4361 219.6361 15.16962846 48551
TEVEL-2                 
1 51069U 22002CP  22334.63410836  .00008175  00000+0  41618-3 0  9995
2 51069  97.4623  38.9035 0008523 199.6444 319.1583 15.17035470 48585
GREENCUBE               
1 53106U 22080B   22333.51808465 -.00000003  00000+0  00000+0 0  9999
2 53106  70.1765  29.0920 0008978 229.5364 130.4514  6.42557523  8924
YUZGU 9 (RS3S)          
1 53308U 98067TT  22334.40311253  .00100807  00000+0  88451-3 0  9996
2 53308  51.6351 226.4862 0008561 146.7306 213.4230 15.67989161 20593
YUZGU 7 (RS1S)          
1 53309U 98067TU  22334.31970188  .00106096  00000+0  90700-3 0  9991
2 53309  51.6346 226.6721 0008998 150.3944 209.7564 15.68597866 20537
YUZGU 11 (RS5S)         
1 53310U 98067TV  22334.27446397  .00099975  00000+0  87854-3 0  9991
2 53310  51.6352 227.1258 0008757 148.3608 211.7917 15.67953469 20555
YUZGU 12 (RS6S)         
1 53311U 98067TW  22334.42652820  .00115559  00000+0  95864-3 0  9996
2 53311  51.6346 225.8850 0008602 146.5837 213.5705 15.69294480 20609
TSIOLKOVSKY-RYAZAN 1 (*)
1 53312U 98067TX  22334.25806290  .00107823  00000+0  93461-3 0  9996
2 53312  51.6355 227.0172 0009068 150.3864 209.7648 15.68251991 20513
TSIOLKOVSKY-RYAZAN 2 (*)
1 53313U 98067TY  22334.19020603  .00106118  00000+0  91344-3 0  9990
2 53313  51.6354 227.3149 0008660 151.3744 208.7730 15.68434169 20550
YUZGU 10 (RS4S)         
1 53321U 98067TZ  22334.26696854  .00103448  00000+0  89623-3 0  9994
2 53321  51.6351 227.0761 0008805 147.9398 212.2136 15.68285929 20569
RS29S (SXC3-2110 CYCLO*)
1 53373U 22096D   22334.58794031  .00011777  00000+0  44461-3 0  9995
2 53373  97.4280 235.3220 0002988 100.9987 308.2212 15.27169174 17279
RS32S (SXC3-212 MONITO*)
1 53374U 22096E   22334.58089652  .00010616  00000+0  40036-3 0  9997
2 53374  97.4272 235.3285 0003144  93.9875 319.1590 15.27231047 17273
RS34S (SXC3-218 KUZBAS*)
1 53375U 22096F   22334.59130435  .00009697  00000+0  37028-3 0  9999
2 53375  97.4282 235.3145 0003161  98.0944 309.2162 15.26842713 17274
RS23S (SXC3-21 UTMN)    
1 53376U 22096G   22334.58876896  .00010022  00000+0  38178-3 0  9998
2 53376  97.4279 235.3203 0003261  97.8889 311.6556 15.26913538 17270
RS28S (SXC3-214 MIET-A*)
1 53377U 22096H   22334.59623315  .00009365  00000+0  35758-3 0  9995
2 53377  97.4286 235.3316 0003330  95.0880 359.5542 15.26856637 17274
RS26S (KAI-1)           
1 53378U 22096J   22334.47147661  .00008385  00000+0  32234-3 0  9995
2 53378  97.4282 235.1935 0003368  91.4828  12.2688 15.26663540 17250
RS19S (SXC3-219 ISOI)   
1 53381U 22096M   22334.61850638  .00009760  00000+0  36663-3 0  9998
2 53381  97.4273 235.4301 0006029  59.3532 347.3255 15.27373494 17288
RS21S (CUBESX-HSE-2)    
1 53383U 22096P   22334.56032580  .00009721  00000+0  36472-3 0  9997
2 53383  97.4279 235.3828 0006233  58.4697  45.1126 15.27414764 17273
RS30S (SXC3-217 SIREN)  
1 53384U 22096Q   22334.56618148  .00008987  00000+0  33897-3 0  9999
2 53384  97.4278 235.3802 0006276  58.0397  62.5833 15.27262234 17276
RS20S (GEOSCAN-EDELVEIS)
1 53385U 22096R   22334.59461118  .00012160  00000+0  44554-3 0  9996
2 53385  97.4271 235.4808 0006729  56.4623  38.5757 15.28133855 17314
RS33S (SXC3-215 VIZARD) 
1 53386U 22096S   22334.49758091  .00014568  00000+0  52050-3 0  9999
2 53386  97.4270 235.4614 0007681  56.0215  48.9212 15.28909802 17291
